OBJECT B                
1 51825U 22019B   25228.83419652  .00018605  00000+0  42327-3 0  9992
2 51825  97.3809 306.2593 0010552 157.1247 203.0473 15.42970877192413
